[{"OBJECT_NAME":"STARLINK-2100","OBJECT_ID":"2021-005AH","EPOCH":"2026-03-09T22:00:01.999584","MEAN_MOTION":15.12103699,"ECCENTRICITY":0.00010124,"INCLINATION":53.0532,"RA_OF_ASC_NODE":30.5302,"ARG_OF_PERICENTER":95.6888,"MEAN_ANOMALY":202.9615,"EPHEMERIS_TYPE":0,"CLASSIFICATION_TYPE":"U","NORAD_CAT_ID":47380,"ELEMENT_SET_NO":999,"REV_AT_EPOCH":577,"BSTAR":0.078295115,"MEAN_MOTION_DOT":0.014974,"MEAN_MOTION_DDOT":0},{"OBJECT_NAME":"QUICK3","OBJECT_ID":"2025-135AG","EPOCH":"2026-03-09T21:40:49.946304","MEAN_MOTION":15.24606762,"ECCENTRICITY":0.00063908,"INCLINATION":97.4614,"RA_OF_ASC_NODE":185.4931,"ARG_OF_PERICENTER":144.4818,"MEAN_ANOMALY":215.6846,"EPHEMERIS_TYPE":0,"CLASSIFICATION_TYPE":"U","NORAD_CAT_ID":64558,"ELEMENT_SET_NO":999,"REV_AT_EPOCH":3971,"BSTAR":0.00070513701,"MEAN_MOTION_DOT":0.00017352,"MEAN_MOTION_DDOT":0}]
